CZ-4B R/B               
1 28059U 03049C   18129.82801425  .00000002  00000-0  12346-4 0  9993
2 28059  98.5247  26.5672 0049613 331.8071  76.6876 14.52525624771095
CZ-2C R/B               
1 28222U 04012C   18130.78228045  .00000537  00000-0  36462-4 0  9992
2 28222  97.5720  87.1273 0048863 141.1450 279.4404 15.09693765770039
SL-16 R/B               
1 28353U 04021B   18130.21474925  .00000086  00000-0  69926-4 0  9995
2 28353  70.9981 112.6238 0003244  48.9261 311.2141 14.14203037718399
CZ-2C R/B               
1 28480U 04046B   18130.72773627 -.00000006  00000-0  13477-4 0  9993
2 28480  98.1770 210.6137 0141456 338.3073 130.4677 14.25671953700901
ARIANE 5 R/B            
1 28499U 04049H   18130.23831701  .00000057  00000-0  14572-4 0  9992
2 28499  98.0581 219.7878 0091143 238.8128 173.5576 14.79897349722362
CZ-2D R/B               
1 28738U 05024B   18130.66544446  .00000366  00000-0  25344-4 0  9998
2 28738  97.4575 165.4174 0011033 323.6296  36.4183 15.11522521705275
SUZAKU (ASTRO-EII)      
1 28773U 05025A   18129.99270102  .00001227  00000-0  57031-4 0  9992
2 28773  31.3837 335.9556 0004515  26.8570 333.2310 15.16512602706998
ALOS (DAICHI)           
1 28931U 06002A   18130.59950331  .00000134  00000-0  35003-4 0  9992
2 28931  97.8217 146.1451 0002127  52.5997 307.5400 14.62486920655311
H-2A R/B                
1 28932U 06002B   18130.20462088  .00000589  00000-0  60790-4 0  9993
2 28932  98.2304  71.6992 0088620 320.6716 145.3279 14.91701871666553
AKARI (ASTRO-F)         
1 28939U 06005A   18130.37452892  .00003195  00000-0  94602-4 0  9998
2 28939  98.2138  11.6951 0103158 129.0718 231.9754 15.30626569663136
RESURS-DK 1             
1 29228U 06021A   18130.71082171  .00000104  00000-0  15266-4 0  9991
2 29228  69.9357 344.6816 0006444 226.0624 134.0006 15.02315713657286
GENESIS 1               
1 29252U 06029A   18129.98849855  .00000388  00000-0  29378-4 0  9996
2 29252  64.5030 297.7270 0046258 293.2872  66.3385 15.17284129651409
CZ-4B R/B               
1 29507U 06046C   18130.63514279  .00000277  00000-0  26697-4 0  9999
2 29507  97.7777 143.4041 0045362 224.1766 135.5831 15.00256022630136
CZ-2C R/B               
1 31114U 07010B   18129.89266147  .00000012  00000-0  24681-4 0  9990
2 31114  98.3668  19.9067 0059556 347.9938  11.9816 14.19270887573858
COSMO-SKYMED 1          
1 31598U 07023A   18130.59988759 -.00000009  00000-0  53979-5 0  9999
2 31598  97.8945 314.6832 0001368  78.4377 281.7002 14.82153279590940
GENESIS 2               
1 31789U 07028A   18130.72043746  .00000218  00000-0  21423-4 0  9998
2 31789  64.5044 334.4967 0012094 320.6711  39.3531 15.16533707598560
COSMOS 2428             
1 31792U 07029A   18130.68883160  .00000292  00000-0  18383-3 0  9992
2 31792  70.9597  85.1087 0008227 168.0846 192.0471 14.12511727560312
SL-16 R/B               
1 31793U 07029B   18130.18484885 -.00000304  00000-0 -13367-3 0  9992
2 31793  70.9767  62.2893 0002518 280.0775 179.1502 14.14399730560957
KORONAS-FOTON           
1 33504U 09003A   18129.84388350  .00000553  00000-0  27610-4 0  9990
2 33504  82.4421 268.2856 0020696  63.3482 296.9867 15.15155845510838
H-2A R/B                
1 38341U 12025E   18130.32900385  .00000240  00000-0  35770-4 0  9994
2 38341  98.4182 230.2980 0055767 184.4484 175.6240 14.83746291323390
CUSAT 2 & FALCON 9 R/B  
1 39271U 13055G   18130.13569464  .00004127  00000-0  10439-3 0  9991
2 39271  80.9696  10.1864 0616011 312.1540  42.8840 14.41216118239653
ALOS-2                  
1 39766U 14029A   18130.39033303  .00000209  00000-0  34915-4 0  9991
2 39766  97.9203 228.0174 0001655  90.6704 269.4704 14.79473673213986
SL-27 R/B               
1 40354U 14084B   18129.89850878  .00000918  00000-0  24544-4 0  9998
2 40354  74.7394 178.7244 0038218  34.3398 326.0272 15.39001385189709
ASTRO-H (HITOMI)        
1 41337U 16012A   18130.60913339  .00000278  00000-0  15778-4 0  9994
2 41337  31.0048 203.7545 0012422  34.1598 325.9835 14.98462435122076
TIANGONG-2              
1 41765U 16057A   18130.69098358  .00005755  00000-0  70479-4 0  9996
2 41765  42.7842 206.4774 0004447 340.8578 154.0694 15.61213873 94128
SHENZHOU-11 MODULE      
1 41868U 16061G   18129.59556425  .00011389  00000-0  89128-4 0  9997
2 41868  42.7931 185.7959 0001273 237.3201 282.0524 15.71616601 84201
